{
  "type": "FeatureCollection",
  "features": [
    {
      "type": "Feature",
      "properties": {
        "norad_id": 44333,
        "name": "AT&T T-16",
        "group": "intelsat",
        "lat": -0.02081523015804118,
        "lon": -96.86205883408415,
        "alt_km": 35787.8635359097,
        "timestamp": "2025-12-10T18:56:59.729956+00:00",
        "meta_object_name": "AT&T T-16",
        "meta_object_id": "2019-034A",
        "meta_epoch": "2025-12-10T07:31:02.562240",
        "meta_mean_motion": 1.00268551,
        "meta_eccentricity": 5.28e-05,
        "meta_inclination": 0.0276,
        "meta_ra_of_asc_node": 70.2757,
        "meta_arg_of_pericenter": 80.1293,
        "meta_mean_anomaly": 300.7785,
        "meta_ephemeris_type": 0,
        "meta_classification_type": "U",
        "meta_norad_cat_id": 44333,
        "meta_element_set_no": 999,
        "meta_rev_at_epoch": 2374,
        "meta_bstar": 0,
        "meta_mean_motion_dot": -1.11e-06,
        "meta_mean_motion_ddot": 0,
        "tle_line1": "1 44333U 19034A   25344.31322410 -.00000111  00000+0  00000+0 0  9990",
        "tle_line2": "2 44333   0.0276  70.2757 0000528  80.1293 300.7785  1.00268551 23744"
      },
      "geometry": {
        "type": "Point",
        "coordinates": [
          -96.86205883408415,
          -0.02081523015804118
        ]
      }
    },
    {
      "type": "Feature",
      "properties": {
        "norad_id": 44476,
        "name": "INTELSAT 39 (IS-39)",
        "group": "intelsat",
        "lat": 0.033882428788090765,
        "lon": 65.9392829557554,
        "alt_km": 35786.066784152805,
        "timestamp": "2025-12-10T18:56:59.729967+00:00",
        "meta_object_name": "INTELSAT 39 (IS-39)",
        "meta_object_id": "2019-049B",
        "meta_epoch": "2025-12-10T00:53:38.582304",
        "meta_mean_motion": 1.0027051,
        "meta_eccentricity": 9.575e-05,
        "meta_inclination": 0.0171,
        "meta_ra_of_asc_node": 322.3711,
        "meta_arg_of_pericenter": 189.1323,
        "meta_mean_anomaly": 2.8736,
        "meta_ephemeris_type": 0,
        "meta_classification_type": "U",
        "meta_norad_cat_id": 44476,
        "meta_element_set_no": 999,
        "meta_rev_at_epoch": 2323,
        "meta_bstar": 0,
        "meta_mean_motion_dot": 3.7e-07,
        "meta_mean_motion_ddot": 0,
        "tle_line1": "1 44476U 19049B   25344.03725211  .00000037  00000+0  00000+0 0  9995",
        "tle_line2": "2 44476   0.0171 322.3711 0000957 189.1323   2.8736  1.00270510 23235"
      },
      "geometry": {
        "type": "Point",
        "coordinates": [
          65.9392829557554,
          0.033882428788090765
        ]
      }
    },
    {
      "type": "Feature",
      "properties": {
        "norad_id": 46114,
        "name": "GALAXY 30 (G-30)",
        "group": "intelsat",
        "lat": -0.03497663382574271,
        "lon": -121.00631684464817,
        "alt_km": 35776.69064597313,
        "timestamp": "2025-12-10T18:56:59.729978+00:00",
        "meta_object_name": "GALAXY 30 (G-30)",
        "meta_object_id": "2020-056C",
        "meta_epoch": "2025-12-10T10:25:19.290720",
        "meta_mean_motion": 1.00272067,
        "meta_eccentricity": 0.0002344,
        "meta_inclination": 0.017,
        "meta_ra_of_asc_node": 325.7585,
        "meta_arg_of_pericenter": 293.7361,
        "meta_mean_anomaly": 211.2428,
        "meta_ephemeris_type": 0,
        "meta_classification_type": "U",
        "meta_norad_cat_id": 46114,
        "meta_element_set_no": 999,
        "meta_rev_at_epoch": 1940,
        "meta_bstar": 0,
        "meta_mean_motion_dot": 4.1e-07,
        "meta_mean_motion_ddot": 0,
        "tle_line1": "1 46114U 20056C   25344.43425105  .00000041  00000+0  00000+0 0  9994",
        "tle_line2": "2 46114   0.0170 325.7585 0002344 293.7361 211.2428  1.00272067 19404"
      },
      "geometry": {
        "type": "Point",
        "coordinates": [
          -121.00631684464817,
          -0.03497663382574271
        ]
      }
    },
    {
      "type": "Feature",
      "properties": {
        "norad_id": 54026,
        "name": "GALAXY 33 (G-33)",
        "group": "intelsat",
        "lat": -0.026754319333916574,
        "lon": -128.9943825561538,
        "alt_km": 35777.04568919202,
        "timestamp": "2025-12-10T18:56:59.729990+00:00",
        "meta_object_name": "GALAXY 33 (G-33)",
        "meta_object_id": "2022-128A",
        "meta_epoch": "2025-12-10T08:01:38.590752",
        "meta_mean_motion": 1.0027266,
        "meta_eccentricity": 0.0002186,
        "meta_inclination": 0.0109,
        "meta_ra_of_asc_node": 311.1958,
        "meta_arg_of_pericenter": 298.6126,
        "meta_mean_anomaly": 176.9205,
        "meta_ephemeris_type": 0,
        "meta_classification_type": "U",
        "meta_norad_cat_id": 54026,
        "meta_element_set_no": 999,
        "meta_rev_at_epoch": 1184,
        "meta_bstar": 0,
        "meta_mean_motion_dot": 8.2e-07,
        "meta_mean_motion_ddot": 0,
        "tle_line1": "1 54026U 22128A   25344.33447443  .00000082  00000+0  00000+0 0  9990",
        "tle_line2": "2 54026   0.0109 311.1958 0002186 298.6126 176.9205  1.00272660 11846"
      },
      "geometry": {
        "type": "Point",
        "coordinates": [
          -128.9943825561538,
          -0.026754319333916574
        ]
      }
    },
    {
      "type": "Feature",
      "properties": {
        "norad_id": 54027,
        "name": "GALAXY 34 (G-34)",
        "group": "intelsat",
        "lat": -0.04145276670154989,
        "lon": -124.92885649957331,
        "alt_km": 35780.941888680245,
        "timestamp": "2025-12-10T18:56:59.730002+00:00",
        "meta_object_name": "GALAXY 34 (G-34)",
        "meta_object_id": "2022-128B",
        "meta_epoch": "2025-12-10T08:50:38.825088",
        "meta_mean_motion": 1.00270694,
        "meta_eccentricity": 0.0001332,
        "meta_inclination": 0.0236,
        "meta_ra_of_asc_node": 329.8698,
        "meta_arg_of_pericenter": 281.1372,
        "meta_mean_anomaly": 192.0712,
        "meta_ephemeris_type": 0,
        "meta_classification_type": "U",
        "meta_norad_cat_id": 54027,
        "meta_element_set_no": 999,
        "meta_rev_at_epoch": 1202,
        "meta_bstar": 0,
        "meta_mean_motion_dot": 0,
        "meta_mean_motion_ddot": 0,
        "tle_line1": "1 54027U 22128B   25344.36850492  .00000000  00000+0  00000+0 0  9996",
        "tle_line2": "2 54027   0.0236 329.8698 0001332 281.1372 192.0712  1.00270694 12025"
      },
      "geometry": {
        "type": "Point",
        "coordinates": [
          -124.92885649957331,
          -0.04145276670154989
        ]
      }
    },
    {
      "type": "Feature",
      "properties": {
        "norad_id": 54243,
        "name": "GALAXY 31 (G-31)",
        "group": "intelsat",
        "lat": -0.01495323853104177,
        "lon": -116.99746962867131,
        "alt_km": 35778.998494417814,
        "timestamp": "2025-12-10T18:56:59.730013+00:00",
        "meta_object_name": "GALAXY 31 (G-31)",
        "meta_object_id": "2022-153A",
        "meta_epoch": "2025-12-10T10:21:54.571104",
        "meta_mean_motion": 1.00272283,
        "meta_eccentricity": 0.0001864,
        "meta_inclination": 0.0163,
        "meta_ra_of_asc_node": 257.0586,
        "meta_arg_of_pericenter": 14.5968,
        "meta_mean_anomaly": 202.236,
        "meta_ephemeris_type": 0,
        "meta_classification_type": "U",
        "meta_norad_cat_id": 54243,
        "meta_element_set_no": 999,
        "meta_rev_at_epoch": 524,
        "meta_bstar": 0,
        "meta_mean_motion_dot": 1.7e-07,
        "meta_mean_motion_ddot": 0,
        "tle_line1": "1 54243U 22153A   25344.43188161  .00000017  00000+0  00000+0 0  9997",
        "tle_line2": "2 54243   0.0163 257.0586 0001864  14.5968 202.2360  1.00272283  5246"
      },
      "geometry": {
        "type": "Point",
        "coordinates": [
          -116.99746962867131,
          -0.01495323853104177
        ]
      }
    },
    {
      "type": "Feature",
      "properties": {
        "norad_id": 54244,
        "name": "GALAXY 32 (G-32)",
        "group": "intelsat",
        "lat": -0.024479799385579353,
        "lon": -87.02083317272204,
        "alt_km": 35777.26281386008,
        "timestamp": "2025-12-10T18:56:59.730025+00:00",
        "meta_object_name": "GALAXY 32 (G-32)",
        "meta_object_id": "2022-153B",
        "meta_epoch": "2025-12-09T19:59:19.033152",
        "meta_mean_motion": 1.00270522,
        "meta_eccentricity": 0.000271,
        "meta_inclination": 0.0091,
        "meta_ra_of_asc_node": 335.3746,
        "meta_arg_of_pericenter": 333.9234,
        "meta_mean_anomaly": 338.3447,
        "meta_ephemeris_type": 0,
        "meta_classification_type": "U",
        "meta_norad_cat_id": 54244,
        "meta_element_set_no": 999,
        "meta_rev_at_epoch": 1124,
        "meta_bstar": 0,
        "meta_mean_motion_dot": -1.71e-06,
        "meta_mean_motion_ddot": 0,
        "tle_line1": "1 54244U 22153B   25343.83285918 -.00000171  00000+0  00000+0 0  9991",
        "tle_line2": "2 54244   0.0091 335.3746 0002710 333.9234 338.3447  1.00270522 11248"
      },
      "geometry": {
        "type": "Point",
        "coordinates": [
          -87.02083317272204,
          -0.024479799385579353
        ]
      }
    }
  ]
}